SES-7 (PROTOSTAR 2)     
1 34941U 09027A   17345.93632764 -.00000351  00000-0  00000-0 0  9999
2 34941   0.0560  82.4586 0002641 187.7035 256.0013  1.00271318 31465
